NORAD_CAT_ID,OBJECT_NAME,OBJECT_TYPE,EPOCH,MEAN_MOTION,ECCENTRICITY,INCLINATION,RA_OF_ASC_NODE,ARG_OF_PERICENTER,MEAN_ANOMALY,BSTAR,MEAN_MOTION_DOT,MEAN_MOTION_DDOT,TLE_LINE0,TLE_LINE1,TLE_LINE2,SEMIMAJOR_AXIS,PERIOD,APOGEE,PERIGEE,DECAYED
53635.0,STARLINK-4587,PAYLOAD,2022-10-13 06:00:00,15.73170308,0.0001748,53.2171,59.7139,39.9447,71.78399999999998,0.00071936,0.00101436,0.0,0 STARLINK-4587,1 53635U 22104AZ  22286.25001157  .00101436  00000-0  71936-3 0  9996,2 53635  53.2171  59.7139 0001748  39.9447  71.7840 15.73170308  7293,6727.98,91.535,351.021,348.6690000000001,0.0
53635.0,STARLINK-4587,PAYLOAD,2022-10-13 14:00:01,15.73251877,0.0001757,53.2175,58.0658,37.5545,163.1094,-0.00047744,-0.00067245,0.0,0 STARLINK-4587,1 53635U 22104AZ  22286.58334491 -.00067245  00000-0 -47744-3 0  9993,2 53635  53.2175  58.0658 0001757  37.5545 163.1094 15.73251877  1302,6727.746999999999,91.53,350.7940000000001,348.43,0.0
53635.0,STARLINK-4587,PAYLOAD,2022-10-13 20:00:01,15.73199812,0.0001783,53.2172,56.8299,34.3301,143.129,6.4677e-05,8.466e-05,0.0,0 STARLINK-4587,1 53635U 22104AZ  22286.83335648  .00008466  00000-0  64677-4 0  9999,2 53635  53.2172  56.8299 0001783  34.3301 143.1290 15.73199812  7380,6727.896,91.533,350.96,348.561,0.0
53635.0,STARLINK-4587,PAYLOAD,2022-10-13 22:00:00,15.73205213,0.0001776999999999,53.2171,56.417,33.9862,255.6392,-6.862999999999999e-06,-1.584e-05,0.0,0 STARLINK-4587,1 53635U 22104AZ  22286.91667824 -.00001584  00000-0 -68630-5 0  9992,2 53635  53.2171  56.4170 0001777  33.9862 255.6392 15.73205213  1304,6727.88,91.533,350.941,348.55,0.0
53635.0,STARLINK-4587,PAYLOAD,2022-10-14 14:00:01,15.73204149,0.0001927,53.2173,53.1177,36.6672,70.8275,1.9384e-06,-3.49e-06,0.0,0 STARLINK-4587,1 53635U 22104AZ  22287.58334491 -.00000349  00000-0  19384-5 0  9996,2 53635  53.2173  53.1177 0001927  36.6672  70.8275 15.73204149  1307,6727.8830000000025,91.533,351.045,348.452,0.0
53635.0,STARLINK-4587,PAYLOAD,2022-10-14 18:00:00,15.73204542,0.0001961,53.2176,52.2936,35.1097,296.8515,-4.4381e-06,-1.244e-05,0.0,0 STARLINK-4587,1 53635U 22104AZ  22287.75001157 -.00001244  00000-0 -44381-5 0  9996,2 53635  53.2176  52.2936 0001961  35.1097 296.8515 15.73204542  7520,6727.882,91.533,351.06699999999995,348.42800000000005,0.0
53635.0,STARLINK-4587,PAYLOAD,2022-10-15 14:00:01,15.732478899999998,0.0002287,53.2164,48.1696,24.5213,349.922,-0.00032163,-0.00045614,0.0,0 STARLINK-4587,1 53635U 22104AZ  22288.58334491 -.00045614  00000-0 -32163-3 0  9990,2 53635  53.2164  48.1696 0002287  24.5213 349.9220 15.73247890  7658,6727.759,91.53,351.162,348.085,0.0
53635.0,STARLINK-4587,PAYLOAD,2022-10-15 22:00:01,15.73407778,0.0002484999999999,53.2164,46.52,22.2162,81.32300000000002,-0.0054068999999999,-0.00705484,0.0,0 STARLINK-4587,1 53635U 22104AZ  22288.91668981 -.00705484  00000-0 -54069-2 0  9997,2 53635  53.2164  46.5200 0002485  22.2162  81.3230 15.73407778  1306,6727.303000000001,91.521,350.84,347.496,0.0
53635.0,STARLINK-4587,PAYLOAD,2022-10-16 06:00:00,15.73086271,0.0002166999999999,53.216,44.8688,24.5922,167.7016,0.00061363,0.00085968,0.0,0 STARLINK-4587,1 53635U 22104AZ  22289.25001157  .00085968  00000-0  61363-3 0  9993,2 53635  53.2160  44.8688 0002167  24.5922 167.7016 15.73086271  7767,6728.219,91.54,351.542,348.626,0.0
53635.0,STARLINK-4587,PAYLOAD,2022-10-16 14:00:01,15.73160711,0.0002484,53.2164,43.2216,24.5211,256.6235,0.00047523,0.00066498,0.0,0 STARLINK-4587,1 53635U 22104AZ  22289.58334491  .00066498  00000-0  47523-3 0  9998,2 53635  53.2164  43.2216 0002484  24.5211 256.6235 15.73160711  1301,6728.007,91.535,351.543,348.201,0.0
53635.0,STARLINK-4587,PAYLOAD,2022-10-16 22:00:00,15.73218015,0.0002493,53.2161,41.5718,20.1363,349.8875,-0.00025581,-0.00036401,0.0,0 STARLINK-4587,1 53635U 22104AZ  22289.91667824 -.00036401  00000-0 -25581-3 0  9997,2 53635  53.2161  41.5718 0002493  20.1363 349.8875 15.73218015  1302,6727.844,91.532,351.386,348.032,0.0
53635.0,STARLINK-4587,PAYLOAD,2022-10-17 06:00:00,15.73210545,0.0002359,53.2163,39.9202,23.6322,75.3231,-2.0757e-06,-9.13e-06,0.0,0 STARLINK-4587,1 53635U 22104AZ  22290.25001157 -.00000913  00000-0 -20757-5 0  9998,2 53635  53.2163  39.9202 0002359  23.6322  75.3231 15.73210545  7928,6727.865,91.533,351.31699999999995,348.14300000000014,0.0
53635.0,STARLINK-4587,PAYLOAD,2022-10-17 14:00:01,15.73225936,0.0002694,53.2164,38.2733,23.5029,164.4152,0.00012778,0.0001737,0.0,0 STARLINK-4587,1 53635U 22104AZ  22290.58334491  .00017370  00000-0  12778-3 0  9999,2 53635  53.2164  38.2733 0002694  23.5029 164.4152 15.73225936  1303,6727.821,91.532,351.499,347.874,0.0
53635.0,STARLINK-4587,PAYLOAD,2022-10-17 22:00:00,15.73260345,0.000266,53.2157,36.6228,21.3692,255.4814,-0.00051177,-0.00072033,0.0,0 STARLINK-4587,1 53635U 22104AZ  22290.91667824 -.00072033  00000-0 -51177-3 0  9990,2 53635  53.2157  36.6228 0002660  21.3692 255.4814 15.73260345  1300,6727.723000000001,91.53,351.37800000000016,347.7990000000001,0.0
53635.0,STARLINK-4587,PAYLOAD,2022-10-18 14:00:01,15.73202686,0.000277,53.2158,33.3244,22.4336,72.3475,-0.00022202,-0.00031674,0.0,0 STARLINK-4587,1 53635U 22104AZ  22291.58334491 -.00031674  00000-0 -22202-3 0  9998,2 53635  53.2158  33.3244 0002770  22.4336  72.3475 15.73202686  8133,6727.888000000001,91.533,351.616,347.889,0.0
53635.0,STARLINK-4587,PAYLOAD,2022-10-18 22:00:00,15.73205644,0.0002532,53.2174,31.673,16.8031,166.8371,-2.2487e-05,-3.778e-05,0.0,0 STARLINK-4587,1 53635U 22104AZ  22291.91667824 -.00003778  00000-0 -22487-4 0  9994,2 53635  53.2174  31.6730 0002532  16.8031 166.8371 15.73205644  1300,6727.879,91.533,351.4480000000001,348.041,0.0
53635.0,STARLINK-4587,PAYLOAD,2022-10-19 06:00:00,15.73170221,0.0002593999999999,53.216,30.0233,17.1277,255.4816,0.00043198,0.0006037,0.0,0 STARLINK-4587,1 53635U 22104AZ  22292.25001157  .00060370  00000-0  43198-3 0  9993,2 53635  53.2160  30.0233 0002594  17.1277 255.4816 15.73170221  8230,6727.98,91.535,351.59,348.1,0.0
53635.0,STARLINK-4587,PAYLOAD,2022-10-19 14:00:01,15.73184796,0.0002859,53.216,28.3761,15.3766,346.1595,-3.5087e-05,-5.541e-05,0.0,0 STARLINK-4587,1 53635U 22104AZ  22292.58334491 -.00005541  00000-0 -35087-4 0  9999,2 53635  53.2160  28.3761 0002859  15.3766 346.1595 15.73184796  1308,6727.939,91.534,351.727,347.88,0.0
53635.0,STARLINK-4587,PAYLOAD,2022-10-19 22:00:00,15.73253582,0.0002884999999999,53.2162,26.7254,17.9526,72.4938,-0.00079581,-0.0011113,0.0,0 STARLINK-4587,1 53635U 22104AZ  22292.91667824 -.00111130  00000-0 -79581-3 0  9993,2 53635  53.2162  26.7254 0002885  17.9526  72.4938 15.73253582  8341,6727.7419999999975,91.53,351.548,347.666,0.0
53635.0,STARLINK-4587,PAYLOAD,2022-10-20 06:00:00,15.73216948,0.0002593,53.2157,25.0747,10.5106,168.9027,4.6779e-05,5.953e-05,0.0,0 STARLINK-4587,1 53635U 22104AZ  22293.25001157  .00005953  00000-0  46779-4 0  9999,2 53635  53.2157  25.0747 0002593  10.5106 168.9027 15.73216948  8393,6727.847,91.532,351.456,347.967,0.0
53635.0,STARLINK-4587,PAYLOAD,2022-10-20 14:00:01,15.73176677,0.0002941,53.2158,23.4274,8.2627,260.087,-5.4705e-05,-8.287e-05,0.0,0 STARLINK-4587,1 53635U 22104AZ  22293.58334491 -.00008287  00000-0 -54705-4 0  9998,2 53635  53.2158  23.4274 0002941   8.2627 260.0870 15.73176677  8440,6727.962,91.535,351.805,347.848,0.0
53635.0,STARLINK-4587,PAYLOAD,2022-10-20 22:00:00,15.73167148,0.0002943,53.2163,21.7765,9.1309,348.1199,-0.00012537,-0.00018159,0.0,0 STARLINK-4587,1 53635U 22104AZ  22293.91667824 -.00018159  00000-0 -12537-3 0  9999,2 53635  53.2163  21.7765 0002943   9.1309 348.1199 15.73167148  1304,6727.989000000001,91.535,351.834,347.874,0.0
53635.0,STARLINK-4587,PAYLOAD,2022-10-21 06:00:00,15.73176062,0.0002848,53.2162,20.1258,13.4213,72.7305,0.00050074,0.00070181,0.0,0 STARLINK-4587,1 53635U 22104AZ  22294.25001157  .00070181  00000-0  50074-3 0  9997,2 53635  53.2162  20.1258 0002848  13.4213  72.7305 15.73176062  8557,6727.9630000000025,91.535,351.745,347.912,0.0
53635.0,STARLINK-4587,PAYLOAD,2022-10-21 14:00:01,15.73237245,0.0003212,53.2159,18.4791,12.384,162.7253,0.00017122,0.00023518,0.0,0 STARLINK-4587,1 53635U 22104AZ  22294.58334491  .00023518  00000-0  17122-3 0  9992,2 53635  53.2159  18.4791 0003212  12.3840 162.7253 15.73237245  1304,6727.7890000000025,91.531,351.815,347.49300000000005,0.0
53635.0,STARLINK-4587,PAYLOAD,2022-10-21 22:00:00,15.73274663,0.0003094,53.2154,16.8281,12.0733,252.0158,-0.00086547,-0.00120781,0.0,0 STARLINK-4587,1 53635U 22104AZ  22294.91667824 -.00120781  00000-0 -86547-3 0  9997,2 53635  53.2154  16.8281 0003094  12.0733 252.0158 15.73274663  8658,6727.682,91.529,351.629,347.466,0.0
53635.0,STARLINK-4587,PAYLOAD,2022-10-22 14:00:01,15.73149468,0.0003301,53.2159,13.5305,11.8356,70.1188,0.00057184,0.00080245,0.0,0 STARLINK-4587,1 53635U 22104AZ  22295.58334491  .00080245  00000-0  57184-3 0  9995,2 53635  53.2159  13.5305 0003301  11.8356  70.1188 15.73149468  1304,6728.0390000000025,91.536,352.125,347.68300000000005,0.0
53635.0,STARLINK-4587,PAYLOAD,2022-10-22 22:00:00,15.73257386,0.0003236,53.216,11.8798,11.1724,159.6883,-0.00030533,-0.00043372,0.0,0 STARLINK-4587,1 53635U 22104AZ  22295.91667824 -.00043372  00000-0 -30533-3 0  9992,2 53635  53.2160  11.8798 0003236  11.1724 159.6883 15.73257386  1306,6727.732,91.53,351.774,347.4190000000001,0.0
53635.0,STARLINK-4587,PAYLOAD,2022-10-23 14:00:01,15.73287778,0.0003444999999999,53.2157,8.582,8.6871,340.1568,-0.00018185,-0.00026171,0.0,0 STARLINK-4587,1 53635U 22104AZ  22296.58334491 -.00026171  00000-0 -18185-3 0  9994,2 53635  53.2157   8.5820 0003445   8.6871 340.1568 15.73287778  8916,6727.645,91.528,351.82800000000015,347.19199999999995,0.0
53635.0,STARLINK-4587,PAYLOAD,2022-10-23 22:00:00,15.73267057,0.0003291,53.2153,6.9308,5.9939,71.8711,-0.00092536,-0.00128938,0.0,0 STARLINK-4587,1 53635U 22104AZ  22296.91667824 -.00128938  00000-0 -92536-3 0  9996,2 53635  53.2153   6.9308 0003291   5.9939  71.8711 15.73267057  8971,6727.704000000002,91.529,351.783,347.355,0.0
